KUIPER-00152            
1 65772U 25217L   25311.02278196  .00034893  00000+0  92488-3 0  9991
2 65772  51.8720 236.8674 0002763 146.9278 213.1882 15.38003768  6555
KUIPER-00153            
1 65773U 25217M   25311.33335648  .00038280  00000+0  17197-2 0  9999
2 65773  51.8709 236.9119 0009920 262.8124 357.0835 15.20747038  2365
KUIPER-00155            
1 65774U 25217N   25311.26002364  .00079499  00000+0  21995-2 0  9996
2 65774  51.8680 236.1849 0004168 243.5500 116.5059 15.36295787  6589
KUIPER-00156            
1 65775U 25217P   25311.09480462  .00022611  00000+0  60792-3 0  9990
2 65775  51.8720 236.6014 0002697 162.9609 197.1469 15.37800561  6564
KUIPER-00158            
1 65776U 25217Q   25311.33335648  .00010010  00000+0  32774-3 0  9992
2 65776  51.8720 235.8326 0003606 232.9491 184.5548 15.32275484  4943
KUIPER-00163            
1 65777U 25217R   25311.33335648 -.00033377  00000+0 -12293-2 0  9999
2 65777  51.8651 236.2859 0008153 261.3827 264.7711 15.27100384  1304
KUIPER-00165            
1 65778U 25217S   25311.10933665  .00022297  00000+0  61017-3 0  9994
2 65778  51.8704 236.6928 0003514 200.9076 159.1767 15.37259070  6565
KUIPER-00166            
1 65779U 25217T   25311.10192811  .00035095  00000+0  94993-3 0  9994
2 65779  51.8710 236.6473 0002800 170.5057 189.5984 15.37353039  6564
